     2.00           N: GPS NAV DATA                         RINEX VERSION / TYPE
teqc  1999Jul19                         20080926 04:10:42UTCPGM / RUN BY / DATE
MSWinNT 4.0|PentPro|wcl386 10.6|MSWin95/98/NT|486/DX+       COMMENT
                                                            END OF HEADER
27 08  9 25 15 59 44.0 2.202834002674D-04 2.842170943040D-12 0.000000000000D+00
    1.200000000000D+01 4.865625000000D+01 4.521616914922D-09 2.649745388943D+00
    2.270564436913D-06 2.119366114493D-02 2.698972821236D-06 5.153726472855D+03
    4.031840000000D+05 1.862645149231D-07 7.874367967947D-01-1.657754182816D-07
    9.710097553453D-01 3.318437500000D+02-1.684719255274D+00-8.023905656449D-09
    2.432244169875D-10 0.000000000000D+00 1.498000000000D+03 0.000000000000D+00
    2.000000000000D+00 0.000000000000D+00-4.190951585770D-09 1.200000000000D+01
    4.011300000000D+05
 7 08  9 25 16  0  0.0 1.921178773046D-05 1.932676241267D-12 0.000000000000D+00
    2.700000000000D+01 3.159375000000D+01 4.839844456091D-09-1.650654169126D+00
    1.531094312668D-06 2.227897755802D-03 2.922490239143D-06 5.153691091537D+03
    4.032000000000D+05-5.587935447693D-08 8.471837199625D-01-7.450580596924D-09
    9.639315359376D-01 3.294375000000D+02 2.739999819945D+00-8.492496603715D-09
    3.085842823454D-10 0.000000000000D+00 1.498000000000D+03 0.000000000000D+00
    2.000000000000D+00 0.000000000000D+00-1.071020960808D-08 2.700000000000D+01
    4.015800000000D+05
 8 08  9 25 16  0  0.0-1.715524122119D-04-1.477928890381D-12 0.000000000000D+00
    4.000000000000D+01 2.900000000000D+01 4.352324148913D-09-2.417137376685D+00
    1.613050699234D-06 1.057561789639D-02 3.159046173096D-06 5.153715766907D+03
    4.032000000000D+05-2.309679985046D-07 9.024868948760D-01 1.676380634308D-08
    9.850707738660D-01 3.385000000000D+02 2.910679134955D+00-8.164625803722D-09
    2.932264997750D-10 0.000000000000D+00 1.498000000000D+03 0.000000000000D+00
    2.000000000000D+00 0.000000000000D+00-3.725290298462D-09 4.000000000000D+01
    4.019700000000D+05
 8 08  9 25 15 59 44.0-1.715519465506D-04-1.477928890381D-12 0.000000000000D+00
    5.400000000000D+01 2.900000000000D+01 4.352324148913D-09-2.419471295708D+00
    1.613050699234D-06 1.057561929338D-02 3.159046173096D-06 5.153715764999D+03
    4.031840000000D+05-2.309679985046D-07 9.024870353161D-01 1.676380634308D-08
    9.850707680143D-01 3.385000000000D+02 2.910679374873D+00-8.164625803722D-09
    2.932264997750D-10 0.000000000000D+00 1.498000000000D+03 0.000000000000D+00
    2.000000000000D+00 0.000000000000D+00-3.725290298462D-09 5.400000000000D+01
    4.025400000000D+05
 2 08  9 25 17 59 44.0 1.847529783845D-04-2.728484105319D-12 0.000000000000D+00
    7.000000000000D+00 3.425000000000D+01 5.450227023832D-09 1.047795616002D+00
    1.657754182816D-06 8.757701609284D-03 5.023553967476D-06 5.153771411896D+03
    4.103840000000D+05 1.974403858185D-07-2.304886771306D+00 2.235174179077D-08
    9.426740357117D-01 2.705937500000D+02 2.645232718229D+00-8.562142361883D-09
    7.500312418118D-11 0.000000000000D+00 1.498000000000D+03 0.000000000000D+00
    2.000000000000D+00 0.000000000000D+00-1.722946763039D-08 7.000000000000D+00
    4.032000000000D+05
 4 08  9 25 18  0  0.0-1.818081364036D-04-1.125499693444D-11 0.000000000000D+00
    4.800000000000D+01 3.093750000000D+01 5.417011354552D-09-2.403118414134D+00
    1.532956957817D-06 8.315779385157D-03 5.293637514114D-06 5.153582256317D+03
    4.104000000000D+05 1.117587089539D-08-2.286190719214D+00-1.452863216400D-07
    9.419355722203D-01 2.684687500000D+02 4.016883109933D-01-8.478924609815D-09
    1.785788670980D-10 0.000000000000D+00 1.498000000000D+03 0.000000000000D+00
    2.000000000000D+00 0.000000000000D+00-6.053596735001D-09 4.800000000000D+01
    4.032000000000D+05
 7 08  9 25 18  0  0.0 1.922575756907D-05 1.932676241267D-12 0.000000000000D+00
    2.800000000000D+01 2.815625000000D+01 4.766627120581D-09-6.005744040374D-01
    1.370906829834D-06 2.228061901405D-03 2.535060048103D-06 5.153690866470D+03
    4.104000000000D+05-2.048909664154D-08 8.471227645548D-01-5.774199962616D-08
    9.639336279105D-01 3.305000000000D+02 2.740092609913D+00-8.503211335740D-09
    2.660825119761D-10 0.000000000000D+00 1.498000000000D+03 0.000000000000D+00
    2.000000000000D+00 0.000000000000D+00-1.071020960808D-08 2.800000000000D+01
    4.032000000000D+05
 8 08  9 25 17 59 44.0-1.715631224215D-04-1.477928890381D-12 0.000000000000D+00
    6.900000000000D+01 1.843750000000D+01 4.334109104469D-09-1.369442943413D+00
    6.500631570816D-07 1.057625946123D-02 2.795830368996D-06 5.153712993622D+03
    4.103840000000D+05-9.499490261078D-08 9.024271083399D-01-1.173466444016D-07
    9.850729770206D-01 3.406875000000D+02 2.910806471733D+00-8.271773123981D-09
    3.846588797292D-10 0.000000000000D+00 1.498000000000D+03 0.000000000000D+00
    2.000000000000D+00 0.000000000000D+00-3.725290298462D-09 6.900000000000D+01
    4.032000000000D+05
10 08  9 25 18  0  0.0-5.275011062622D-06-4.547473508865D-13 0.000000000000D+00
    3.700000000000D+01-3.518750000000D+01 4.530188700543D-09 1.983729281533D+00
   -1.847743988037D-06 8.035075734369D-03 8.935108780861D-06 5.153707933426D+03
    4.104000000000D+05-1.341104507446D-07-1.221633460383D+00-4.284083843231D-08
    9.615888496467D-01 2.120937500000D+02 5.581551398705D-01-8.088908364073D-09
   -6.471698143633D-10 0.000000000000D+00 1.498000000000D+03 0.000000000000D+00
    2.000000000000D+00 0.000000000000D+00-2.328306436539D-09 3.700000000000D+01
    4.032000000000D+05
15 08  9 25 18  0  0.0-1.834393478930D-04-6.480149750132D-12 0.000000000000D+00
    3.300000000000D+01 6.790625000000D+01 4.263034715364D-09 2.254130612034D+00
    3.568828105927D-06 9.383745491505D-04 1.072511076927D-05 5.153710817337D+03
    4.104000000000D+05 2.421438694000D-08-2.120607646106D-01-9.313225746155D-09
    9.576640584149D-01 1.696250000000D+02-1.165452752597D+00-7.946045270394D-09
    1.182192100189D-10 0.000000000000D+00 1.498000000000D+03 0.000000000000D+00
    2.000000000000D+00 0.000000000000D+00-9.778887033463D-09 3.300000000000D+01
    4.032000000000D+05
24 08  9 25 18  0  0.0 1.281327567995D-04 3.069544618484D-12 0.000000000000D+00
    6.400000000000D+01 3.281250000000D+01 5.073782771990D-09-3.047603916456D+00
    1.652166247368D-06 7.497974555008D-03 5.239620804787D-06 5.153655315399D+03
    4.104000000000D+05-1.490116119385D-08-2.243422250650D+00 9.499490261078D-08
    9.520756616129D-01 2.772812500000D+02-7.060912267566D-01-8.263915653829D-09
    5.857386840816D-11 0.000000000000D+00 1.498000000000D+03 0.000000000000D+00
    2.800000000000D+00 0.000000000000D+00-1.396983861923D-09 6.400000000000D+01
    4.032000000000D+05
25 08  9 25 18  0  0.0-1.279651187360D-04 4.138200893067D-11 0.000000000000D+00
    7.900000000000D+01 4.534375000000D+01 4.576619205989D-09-2.543379476867D+00
    2.471730113029D-06 1.159098360222D-02 2.613291144371D-06 5.153693353653D+03
    4.104000000000D+05 5.960464477539D-08 7.521506275556D-01 1.061707735062D-07
    9.664224845870D-01 3.279375000000D+02-1.249344376482D+00-8.227485564941D-09
    3.489431063096D-10 0.000000000000D+00 1.498000000000D+03 0.000000000000D+00
    2.800000000000D+00 0.000000000000D+00-7.450580596924D-09 7.900000000000D+01
    4.032000000000D+05
26 08  9 25 18  0  0.0 3.307033330202D-04 5.343281372916D-12 0.000000000000D+00
    8.800000000000D+01 7.390625000000D+01 3.559791136732D-09 3.381768314739D-01
    3.967434167862D-06 1.915152359288D-02 1.075863838196D-05 5.153636116028D+03
    4.104000000000D+05-2.011656761169D-07-1.509509898861D-01 2.421438694000D-07
    9.936613228740D-01 1.931562500000D+02 9.546118246714D-01-7.876042354492D-09
    1.046472161195D-10 0.000000000000D+00 1.498000000000D+03 0.000000000000D+00
    2.000000000000D+00 0.000000000000D+00-6.053596735001D-09 8.800000000000D+01
    4.032000000000D+05
27 08  9 25 17 59 44.0 2.203038893640D-04 2.842170943040D-12 0.000000000000D+00
    1.300000000000D+01 4.387500000000D+01 4.493758611655D-09-2.583280269044D+00
    2.112239599228D-06 2.119456871878D-02 2.134591341019D-06 5.153724824905D+03
    4.103840000000D+05 2.328306436539D-07 7.873780021171D-01 6.705522537231D-08
    9.710120901625D-01 3.377187500000D+02-1.684728872497D+00-8.038549123551D-09
    4.214461263514D-10 0.000000000000D+00 1.498000000000D+03 0.000000000000D+00
    2.000000000000D+00 0.000000000000D+00-4.190951585770D-09 1.300000000000D+01
    4.032000000000D+05
29 08  9 25 18  0  0.0-3.657303750515D-05 1.136868377216D-12 0.000000000000D+00
    1.160000000000D+02 0.000000000000D+00 4.369824877889D-09-1.571060001687D+00
   -4.097819328308D-08 3.445938462391D-03 1.156702637672D-05 5.153601102829D+03
    4.104000000000D+05-7.264316082001D-08 2.963878981845D+00 5.587935447693D-08
    9.602373869072D-01 1.557187500000D+02-1.370983900857D+00-7.871756461682D-09
    2.457245211269D-10 0.000000000000D+00 1.498000000000D+03 0.000000000000D+00
    2.000000000000D+00 0.000000000000D+00-8.847564458847D-09 1.160000000000D+02
    4.032000000000D+05
21 08  9 25 18  0  0.0 4.921341314912D-05-1.477928890381D-12 0.000000000000D+00
    5.700000000000D+01 3.106250000000D+01 5.455227232111D-09-1.711997135918D+00
    1.462176442146D-06 1.430271542631D-02 4.705041646957D-06 5.153678789139D+03
    4.104000000000D+05 1.192092895508D-07-2.271443085945D+00-1.583248376846D-07
    9.354463997031D-01 2.740625000000D+02-2.675729741330D+00-8.503568493475D-09
    2.700112470522D-10 0.000000000000D+00 1.498000000000D+03 0.000000000000D+00
    2.000000000000D+00 0.000000000000D+00-1.164153218269D-08 5.700000000000D+01
    4.041600000000D+05
